ONEWEB-0410             
1 51622U 22012A   22067.91667824 -.00863100  00000+0 -52729-1 0  9998
2 51622  87.2966 352.4958 0018366 147.1564 294.8767 15.12755958  3648
ONEWEB-0411             
1 51623U 22012B   22067.91667824 -.01011875  00000+0 -80865-1 0  9996
2 51623  87.4111 352.6463 0016964 152.2451 178.2875 15.02943506  3620
ONEWEB-0415             
1 51624U 22012C   22067.91667824 -.01006638  00000+0 -78778-1 0  9998
2 51624  87.4102 352.6410 0017724 152.1064 219.3817 15.03700963  3630
ONEWEB-0416             
1 51625U 22012D   22067.91667824 -.01000775  00000+0 -71220-1 0  9990
2 51625  87.4214 352.6117 0015830 150.0709 115.6540 15.07703340  3646
ONEWEB-0422             
1 51626U 22012E   22067.91667824 -.00897810  00000+0 -58146-1 0  9996
2 51626  87.3406 352.5620 0018359 150.8191 214.4252 15.10766402  3627
ONEWEB-0423             
1 51627U 22012F   22067.91667824 -.00910642  00000+0 -55902-1 0  9993
2 51627  87.2979 352.5035 0019534 144.5729 306.8584 15.12698679  3643
ONEWEB-0425             
1 51628U 22012G   22067.91667824 -.00995730  00000+0 -75495-1 0  9994
2 51628  87.4181 352.6368 0018198 143.1259 330.1780 15.05308694  3622
ONEWEB-0428             
1 51629U 22012H   22067.91667824 -.01009215  00000+0 -81617-1 0  9993
2 51629  87.4083 352.6499 0015894 152.7617 148.4677 15.02508337  3610
ONEWEB-0431             
1 51630U 22012J   22067.91667824 -.00056735  00000+0 -39054-2 0  9992
2 51630  87.4121 352.6348 0018009 145.7185 310.8607 15.06123745  3631
ONEWEB-0434             
1 51631U 22012K   22067.91667824 -.00994287  00000+0 -74146-1 0  9996
2 51631  87.4196 352.6322 0016441 139.4241   8.5081 15.05951855  3623
ONEWEB-0435             
1 51632U 22012L   22067.91667824 -.01009368  00000+0 -78253-1 0  9998
2 51632  87.4141 352.6493 0018295 152.0053 242.9479 15.04048395  3624
ONEWEB-0436             
1 51633U 22012M   22067.91667824 -.00897425  00000+0 -53478-1 0  9999
2 51633  87.2998 352.4946 0017948 137.9855  23.5504 15.13749687  3646
ONEWEB-0438             
1 51634U 22012N   22067.91667824 -.00996532  00000+0 -72094-1 0  9994
2 51634  87.4224 352.6230 0016415 147.7923  92.4689 15.07076266  3639
ONEWEB-0439             
1 51635U 22012P   22067.91667824 -.00998933  00000+0 -73966-1 0  9991
2 51635  87.4190 352.6218 0016601 139.3032  23.5366 15.06225123  3637
ONEWEB-0442             
1 51636U 22012Q   22067.91667824 -.00876297  00000+0 -51457-1 0  9991
2 51636  87.2987 352.4831 0016369 136.8353  65.3150 15.14239878  3623
ONEWEB-0443             
1 51637U 22012R   22067.91667824 -.00886587  00000+0 -52871-1 0  9996
2 51637  87.2994 352.4953 0018322 140.2908   9.1863 15.13684476  3627
ONEWEB-0444             
1 51638U 22012S   22067.91667824 -.00993489  00000+0 -69965-1 0  9999
2 51638  87.4253 352.6143 0015961 153.2048 138.6520 15.08061577  3641
ONEWEB-0445             
1 51639U 22012T   22067.91667824 -.00924575  00000+0 -66474-1 0  9992
2 51639  87.4171 352.6178 0016142 141.6385  61.1145 15.07087973  3613
ONEWEB-0446             
1 51640U 22012U   22067.91667824 -.00996845  00000+0 -71541-1 0  9994
2 51640  87.4246 352.6153 0015627 148.3691 110.5970 15.07385941  3635
ONEWEB-0448             
1 51641U 22012V   22067.91667824 -.01010093  00000+0 -77392-1 0  9998
2 51641  87.4064 352.6360 0018069 148.8104 270.2687 15.04494061  3631
ONEWEB-0449             
1 51642U 22012W   22067.91667824 -.00993676  00000+0 -76408-1 0  9992
2 51642  87.4131 352.6355 0018074 145.3077 294.5808 15.04782080  3622
ONEWEB-0451             
1 51643U 22012X   22067.91667824 -.00885767  00000+0 -53441-1 0  9996
2 51643  87.2991 352.4989 0018940 142.7312 335.5630 15.13255606  3641
ONEWEB-0452             
1 51644U 22012Y   22067.91667824 -.00900276  00000+0 -49275-1 0  9990
2 51644  87.3155 352.4987 0015809 138.4069 136.8881 15.16789923  3620
ONEWEB-0455             
1 51645U 22012Z   22067.91667824 -.01005702  00000+0 -79367-1 0  9997
2 51645  87.4089 352.6447 0016941 153.7231 203.6310 15.03399273  3621
ONEWEB-0456             
1 51646U 22012AA  22067.91667824 -.00996505  00000+0 -69242-1 0  9998
2 51646  87.4263 352.6061 0016958 149.2561 158.9042 15.08541616  3643
ONEWEB-0457             
1 51647U 22012AB  22067.91667824 -.01001576  00000+0 -73053-1 0  9990
2 51647  87.4174 352.6136 0016104 145.4323  73.9714 15.06797500  3628
ONEWEB-0458             
1 51648U 22012AC  22067.91667824 -.01013748  00000+0 -75763-1 0  9995
2 51648  87.4169 352.6317 0016938 140.2206 350.4384 15.05449827  3623
ONEWEB-0461             
1 51649U 22012AD  22067.91667824 -.00872061  00000+0 -56763-1 0  9995
2 51649  87.3420 352.5696 0017282 153.0458 188.2208 15.10529793  3647
ONEWEB-0463             
1 51650U 22012AE  22067.91667824 -.00860223  00000+0 -51356-1 0  9997
2 51650  87.3017 352.4991 0018324 140.9109 354.8207 15.13568363  3643
ONEWEB-0464             
1 51651U 22012AF  22067.91667824 -.01000997  00000+0 -73075-1 0  9995
2 51651  87.4180 352.6195 0015599 144.0962  59.0085 15.06772634  3612
ONEWEB-0468             
1 51652U 22012AG  22067.91667824 -.01008711  00000+0 -78604-1 0  9991
2 51652  87.4077 352.6312 0018324 149.9657 250.3684 15.03854574  3615
ONEWEB-0473             
1 51653U 22012AH  22067.91667824 -.01017089  00000+0 -75035-1 0  9995
2 51653  87.4146 352.6293 0016986 141.0175  27.8870 15.05937105  3631
ONEWEB-0474             
1 51654U 22012AJ  22067.91667824 -.01005753  00000+0 -77704-1 0  9996
2 51654  87.4136 352.6493 0015117 154.0037 194.8744 15.04225114  3622
ONEWEB-0475             
1 51655U 22012AK  22067.91667824 -.00887521  00000+0 -54396-1 0  9999
2 51655  87.3017 352.5135 0018232 148.1879 281.1444 15.12715201  3639
EOS-4                   
1 51656U 22013A   22067.83773471  .00001568  00000+0  93119-4 0  9994
2 51656  97.5538  76.7150 0012557 164.8005 318.7006 15.12721728  3444
INSPIRESAT-1            
1 51657U 22013B   22067.74369501  .00002476  00000+0  14347-3 0  9994
2 51657  97.5613  76.6615 0011706 171.1056 189.0384 15.13092196  3434
INS-2TD                 
1 51658U 22013C   22067.87324283  .00003307  00000+0  18928-3 0  9990
2 51658  97.5601  76.7914 0011260 172.5536 187.5864 15.13298510  3454
PSLV R/B                
1 51659U 22013D   22067.96949068  .00002942  00000+0  15647-3 0  9994
2 51659  97.5728  77.0498 0031903 257.8341 101.9325 15.15649356  3477
PROGRESS-MS 19          
1 51660U 22014A   22067.39892429  .00007089  00000+0  13379-3 0  9999
2 51660  51.6432 115.7263 0004941 231.8405 136.7776 15.49622677329557
CYGNUS NG-17            
1 51712U 22015A   22067.39892429  .00007089  00000+0  13379-3 0  9998
2 51712  51.6432 115.7263 0004941 231.8405 136.7776 15.49622677329555
STARLINK-3528           
1 51714U 22016A   22067.91667824 -.00022328  00000+0 -15494-3 0  9993
2 51714  53.2191  63.7732 0001384  56.3697 128.1834 15.73222344  3105
STARLINK-3533           
1 51715U 22016B   22067.91667824 -.00042510  00000+0 -29924-3 0  9992
2 51715  53.2192  63.7682 0001053  50.7016 135.6835 15.73259462  3102
STARLINK-3543           
1 51716U 22016C   22067.91667824 -.00022048  00000+0 -15273-3 0  9999
2 51716  53.2177  63.7701 0001264  65.6775 119.3881 15.73254376  3108
STARLINK-3445           
1 51717U 22016D   22067.91667824 -.00041539  00000+0 -29223-3 0  9996
2 51717  53.2192  63.7699 0001344  63.1797 122.5676 15.73261640  3108
STARLINK-3546           
1 51718U 22016E   22067.91667824 -.00025782  00000+0 -17943-3 0  9995
2 51718  53.2176  63.7635 0001309  55.3666 132.8885 15.73253213  3103
STARLINK-3540           
1 51719U 22016F   22067.91667824 -.00048103  00000+0 -33924-3 0  9995
2 51719  53.2174  63.7656 0001150  59.1136 127.9603 15.73271303  3106
STARLINK-3526           
1 51720U 22016G   22067.91667824 -.00049719  00000+0 -35108-3 0  9997
2 51720  53.2176  63.7625 0001195  62.9248 125.9944 15.73256310  3108
STARLINK-3524           
1 51721U 22016H   22067.91667824  .00051648  00000+0  37003-3 0  9996
2 51721  53.2174  63.7644 0001266  55.1360 132.4814 15.73207597  3108
STARLINK-3535           
1 51722U 22016J   22067.91667824 -.00021757  00000+0 -15064-3 0  9990
2 51722  53.2177  63.7590 0001129  59.8365 130.9548 15.73256055  3106
STARLINK-3531           
1 51723U 22016K   22067.91667824 -.00572640  00000+0 -36465-2 0  9990
2 51723  53.2175  63.4294 0003817 353.6227   0.6909 15.77249352  3101
STARLINK-3529           
1 51724U 22016L   22067.91667824  .00033848  00000+0  24429-3 0  9999
2 51724  53.2178  63.7568 0001171  64.5506 127.4995 15.73231424  3101
STARLINK-3522           
1 51725U 22016M   22067.91667824 -.00031349  00000+0 -21933-3 0  9993
2 51725  53.2188  63.7618 0001255  68.4720 121.7245 15.73247530  3103
STARLINK-3527           
1 51726U 22016N   22067.91667824 -.00042460  00000+0 -29899-3 0  9999
2 51726  53.2179  63.7543 0001068  71.8008 121.6082 15.73251131  3100
STARLINK-3532           
1 51727U 22016P   22067.91667824 -.00079384  00000+0 -56464-3 0  9993
2 51727  53.2189  63.7593 0001125  59.9777 131.5099 15.73278800  3101
STARLINK-3448           
1 51728U 22016Q   22067.91667824 -.00071983  00000+0 -51145-3 0  9992
2 51728  53.2180  63.7517 0001051  66.5951 128.1129 15.73264614  3109
STARLINK-3523           
1 51729U 22016R   22067.91667824 -.00039058  00000+0 -27445-3 0  9996
2 51729  53.2175  63.7547 0001251  59.6473 133.1843 15.73260415  3105
STARLINK-3530           
1 51730U 22016S   22067.91667824 -.00048323  00000+0 -34096-3 0  9993
2 51730  53.2181  63.7492 0000947  71.6112 124.3416 15.73262397  3107
STARLINK-3514           
1 51731U 22016T   22067.91667824  .00034774  00000+0  25089-3 0  9999
2 51731  53.2178  63.7528 0001337  71.1071 122.8718 15.73224912  3106
STARLINK-3518           
1 51732U 22016U   22067.91667824 -.00059524  00000+0 -42156-3 0  9996
2 51732  53.2182  63.7483 0001068  73.0502 123.5540 15.73263149  3109
